0 COSMOS 1692
1 16140U 85094C   13287.08732492  .00000023  00000-0  63892-4 0  1870
2 16140 082.5983 309.4406 0018829 110.7372 304.1424 12.64905275293490
0 COSMOS 1692
1 16140U 85094C   13289.15698557 -.00000007  00000-0 -93823-4 0  1885
2 16140 082.5981 308.1169 0018826 106.2543 008.4390 12.64905514293758
0 COSMOS 1692
1 16140U 85094C   13291.53047044 -.00000014  00000-0 -13355-3 0  1899
2 16140 082.5981 306.5988 0018833 101.1888 016.1405 12.64905479294050
0 COSMOS 1692
1 16140U 85094C   13293.81251271  .00000007  00000-0 -22927-4 0  1900
2 16140 082.5983 305.1392 0018832 096.3091 327.4671 12.64905326294342
0 COSMOS 1692
1 16140U 85094C   13296.11659142  .00000017  00000-0  32527-4 0  1913
2 16140 082.5982 303.6656 0018816 091.3620 019.1555 12.64905135294638
